<?xml version="1.0" encoding="UTF-8"?>
<kml xmlns="http://www.opengis.net/kml/2.2">
  <Document>
    <name>Nested</name>
    <Folder>
      <name>Outer folder</name>
      <Placemark>
        <name>Charlie</name>
        <description><![CDATA[<b>Rich</b> text with a <a href="http://example.test">link</a><br/>and a second line]]></description>
        <Point><coordinates>151.215297,-33.856784,58</coordinates></Point>
      </Placemark>
      <Folder>
        <name>Inner folder</name>
        <Placemark>
          <name>Delta</name>
          <description><![CDATA[<p>Paragraph one</p><p>Paragraph two</p>]]></description>
          <Point><coordinates>2.294481,48.858370</coordinates></Point>
        </Placemark>
        <Placemark>
          <name>Echo cluster</name>
          <description>Has a MultiGeometry</description>
          <MultiGeometry>
            <Point><coordinates>-0.127758,51.507351,11</coordinates></Point>
          </MultiGeometry>
        </Placemark>
      </Folder>
      <Placemark>
        <name>A route</name>
        <LineString>
          <coordinates>1,2 3,4 5,6</coordinates>
        </LineString>
      </Placemark>
      <Placemark>
        <name>An area</name>
        <description>A square kilometre with a courtyard cut out of it</description>
        <Polygon>
          <outerBoundaryIs><LinearRing>
            <coordinates>
              38.200000,34.600000 38.210900,34.600000
              38.210900,34.609000 38.200000,34.609000
              38.200000,34.600000
            </coordinates>
          </LinearRing></outerBoundaryIs>
          <innerBoundaryIs><LinearRing>
            <coordinates>
              38.203000,34.602000 38.205000,34.602000
              38.205000,34.604000 38.203000,34.604000
            </coordinates>
          </LinearRing></innerBoundaryIs>
        </Polygon>
      </Placemark>
    </Folder>
  </Document>
</kml>
